[{"OBJECT_NAME":"ONEWEB-0027","OBJECT_ID":"2020-020J","EPOCH":"2026-02-01T05:28:41.608704","MEAN_MOTION":13.17650258,"ECCENTRICITY":0.00019867,"INCLINATION":87.9099,"RA_OF_ASC_NODE":32.8536,"ARG_OF_PERICENTER":100.131,"MEAN_ANOMALY":260.0046,"EPHEMERIS_TYPE":0,"CLASSIFICATION_TYPE":"U","NORAD_CAT_ID":45432,"ELEMENT_SET_NO":999,"REV_AT_EPOCH":28845,"BSTAR":9.2336508e-5,"MEAN_MOTION_DOT":4.9e-7,"MEAN_MOTION_DDOT":0},{"OBJECT_NAME":"ONEWEB-0064","OBJECT_ID":"2020-020K","EPOCH":"2026-01-31T23:54:09.733536","MEAN_MOTION":13.11416742,"ECCENTRICITY":0.00018324,"INCLINATION":87.8815,"RA_OF_ASC_NODE":48.1726,"ARG_OF_PERICENTER":96.759,"MEAN_ANOMALY":263.3747,"EPHEMERIS_TYPE":0,"CLASSIFICATION_TYPE":"U","NORAD_CAT_ID":45433,"ELEMENT_SET_NO":999,"REV_AT_EPOCH":28483,"BSTAR":-0.0012723723,"MEAN_MOTION_DOT":-4.38e-6,"MEAN_MOTION_DDOT":0},{"OBJECT_NAME":"ONEWEB-0018","OBJECT_ID":"2020-020L","EPOCH":"2026-02-01T08:00:02.357568","MEAN_MOTION":13.11417875,"ECCENTRICITY":0.00017037,"INCLINATION":87.8823,"RA_OF_ASC_NODE":48.0993,"ARG_OF_PERICENTER":89.3287,"MEAN_ANOMALY":270.8036,"EPHEMERIS_TYPE":0,"CLASSIFICATION_TYPE":"U","NORAD_CAT_ID":45434,"ELEMENT_SET_NO":999,"REV_AT_EPOCH":28482,"BSTAR":0.0021000831,"MEAN_MOTION_DOT":7.57e-6,"MEAN_MOTION_DDOT":0},{"OBJECT_NAME":"ONEWEB-0083","OBJECT_ID":"2020-020M","EPOCH":"2026-02-01T00:27:09.682848","MEAN_MOTION":13.11419054,"ECCENTRICITY":0.00017894,"INCLINATION":87.8822,"RA_OF_ASC_NODE":48.1498,"ARG_OF_PERICENTER":92.8467,"MEAN_ANOMALY":267.2865,"EPHEMERIS_TYPE":0,"CLASSIFICATION_TYPE":"U","NORAD_CAT_ID":45435,"ELEMENT_SET_NO":999,"REV_AT_EPOCH":28482,"BSTAR":0.0012593225,"MEAN_MOTION_DOT":4.59e-6,"MEAN_MOTION_DDOT":0},{"OBJECT_NAME":"ONEWEB-0095","OBJECT_ID":"2020-020N","EPOCH":"2026-02-01T07:33:22.814496","MEAN_MOTION":13.11418531,"ECCENTRICITY":0.00025847,"INCLINATION":87.882,"RA_OF_ASC_NODE":48.1006,"ARG_OF_PERICENTER":96.5698,"MEAN_ANOMALY":263.5724,"EPHEMERIS_TYPE":0,"CLASSIFICATION_TYPE":"U","NORAD_CAT_ID":45436,"ELEMENT_SET_NO":999,"REV_AT_EPOCH":28486,"BSTAR":-4.9245574e-5,"MEAN_MOTION_DOT":-5.0e-8,"MEAN_MOTION_DDOT":0},{"OBJECT_NAME":"ONEWEB-0092","OBJECT_ID":"2020-020P","EPOCH":"2026-02-01T06:52:52.967424","MEAN_MOTION":13.11413804,"ECCENTRICITY":0.00021702,"INCLINATION":87.882,"RA_OF_ASC_NODE":48.1059,"ARG_OF_PERICENTER":89.1562,"MEAN_ANOMALY":270.9814,"EPHEMERIS_TYPE":0,"CLASSIFICATION_TYPE":"U","NORAD_CAT_ID":45437,"ELEMENT_SET_NO":999,"REV_AT_EPOCH":28497,"BSTAR":-0.0010663209,"MEAN_MOTION_DOT":-3.65e-6,"MEAN_MOTION_DDOT":0},{"OBJECT_NAME":"ONEWEB-0085","OBJECT_ID":"2020-020Q","EPOCH":"2026-02-01T00:25:55.555968","MEAN_MOTION":13.11417969,"ECCENTRICITY":0.00018758,"INCLINATION":87.8815,"RA_OF_ASC_NODE":48.1657,"ARG_OF_PERICENTER":90.2364,"MEAN_ANOMALY":269.8979,"EPHEMERIS_TYPE":0,"CLASSIFICATION_TYPE":"U","NORAD_CAT_ID":45438,"ELEMENT_SET_NO":999,"REV_AT_EPOCH":28482,"BSTAR":0.00094037859,"MEAN_MOTION_DOT":3.46e-6,"MEAN_MOTION_DDOT":0},{"OBJECT_NAME":"ONEWEB-0096","OBJECT_ID":"2020-020R","EPOCH":"2026-02-01T00:28:21.849312","MEAN_MOTION":13.11418038,"ECCENTRICITY":0.00018345,"INCLINATION":87.8825,"RA_OF_ASC_NODE":48.15,"ARG_OF_PERICENTER":87.4526,"MEAN_ANOMALY":272.6812,"EPHEMERIS_TYPE":0,"CLASSIFICATION_TYPE":"U","NORAD_CAT_ID":45439,"ELEMENT_SET_NO":999,"REV_AT_EPOCH":28481,"BSTAR":0.0012337063,"MEAN_MOTION_DOT":4.5e-6,"MEAN_MOTION_DDOT":0},{"OBJECT_NAME":"ONEWEB-0037","OBJECT_ID":"2020-020S","EPOCH":"2026-02-01T07:19:45.111936","MEAN_MOTION":13.11418843,"ECCENTRICITY":0.0001948,"INCLINATION":87.8834,"RA_OF_ASC_NODE":48.067,"ARG_OF_PERICENTER":91.3349,"MEAN_ANOMALY":268.8003,"EPHEMERIS_TYPE":0,"CLASSIFICATION_TYPE":"U","NORAD_CAT_ID":45440,"ELEMENT_SET_NO":999,"REV_AT_EPOCH":28488,"BSTAR":-0.0010279258,"MEAN_MOTION_DOT":-3.52e-6,"MEAN_MOTION_DDOT":0},{"OBJECT_NAME":"ONEWEB-0042","OBJECT_ID":"2020-020T","EPOCH":"2026-02-01T00:13:30.719712","MEAN_MOTION":13.11418362,"ECCENTRICITY":0.00019437,"INCLINATION":87.8823,"RA_OF_ASC_NODE":48.1509,"ARG_OF_PERICENTER":88.0717,"MEAN_ANOMALY":272.0634,"EPHEMERIS_TYPE":0,"CLASSIFICATION_TYPE":"U","NORAD_CAT_ID":45441,"ELEMENT_SET_NO":999,"REV_AT_EPOCH":28481,"BSTAR":8.3388123e-5,"MEAN_MOTION_DOT":4.2e-7,"MEAN_MOTION_DDOT":0},{"OBJECT_NAME":"ONEWEB-0098","OBJECT_ID":"2020-020U","EPOCH":"2026-02-01T03:47:20.151168","MEAN_MOTION":13.11419594,"ECCENTRICITY":0.00017666,"INCLINATION":87.8824,"RA_OF_ASC_NODE":48.1331,"ARG_OF_PERICENTER":93.245,"MEAN_ANOMALY":266.888,"EPHEMERIS_TYPE":0,"CLASSIFICATION_TYPE":"U","NORAD_CAT_ID":45442,"ELEMENT_SET_NO":999,"REV_AT_EPOCH":28481,"BSTAR":-0.00037810953,"MEAN_MOTION_DOT":-1.21e-6,"MEAN_MOTION_DDOT":0},{"OBJECT_NAME":"ONEWEB-0055","OBJECT_ID":"2020-020V","EPOCH":"2026-01-31T18:13:34.334688","MEAN_MOTION":13.11416505,"ECCENTRICITY":0.00017818,"INCLINATION":87.8821,"RA_OF_ASC_NODE":48.2123,"ARG_OF_PERICENTER":93.312,"MEAN_ANOMALY":266.8211,"EPHEMERIS_TYPE":0,"CLASSIFICATION_TYPE":"U","NORAD_CAT_ID":45443,"ELEMENT_SET_NO":999,"REV_AT_EPOCH":28473,"BSTAR":-0.0017857222,"MEAN_MOTION_DOT":-6.2e-6,"MEAN_MOTION_DDOT":0},{"OBJECT_NAME":"ONEWEB-0093","OBJECT_ID":"2020-020W","EPOCH":"2026-02-01T00:57:51.835392","MEAN_MOTION":13.11414861,"ECCENTRICITY":0.00018893,"INCLINATION":87.8825,"RA_OF_ASC_NODE":48.1446,"ARG_OF_PERICENTER":76.1729,"MEAN_ANOMALY":283.9609,"EPHEMERIS_TYPE":0,"CLASSIFICATION_TYPE":"U","NORAD_CAT_ID":45444,"ELEMENT_SET_NO":999,"REV_AT_EPOCH":28483,"BSTAR":0.00098997063,"MEAN_MOTION_DOT":3.64e-6,"MEAN_MOTION_DDOT":0},{"OBJECT_NAME":"ONEWEB-0029","OBJECT_ID":"2020-020X","EPOCH":"2026-02-01T06:50:26.655936","MEAN_MOTION":13.11416121,"ECCENTRICITY":0.00017581,"INCLINATION":87.8822,"RA_OF_ASC_NODE":48.1083,"ARG_OF_PERICENTER":86.9435,"MEAN_ANOMALY":273.1894,"EPHEMERIS_TYPE":0,"CLASSIFICATION_TYPE":"U","NORAD_CAT_ID":45445,"ELEMENT_SET_NO":999,"REV_AT_EPOCH":28484,"BSTAR":-0.00070133687,"MEAN_MOTION_DOT":-2.36e-6,"MEAN_MOTION_DDOT":0},{"OBJECT_NAME":"ONEWEB-0068","OBJECT_ID":"2020-020Y","EPOCH":"2026-02-01T06:27:03.898368","MEAN_MOTION":13.1141443,"ECCENTRICITY":0.00017567,"INCLINATION":87.8823,"RA_OF_ASC_NODE":48.1014,"ARG_OF_PERICENTER":86.3542,"MEAN_ANOMALY":273.7787,"EPHEMERIS_TYPE":0,"CLASSIFICATION_TYPE":"U","NORAD_CAT_ID":45446,"ELEMENT_SET_NO":999,"REV_AT_EPOCH":28478,"BSTAR":0.0010949611,"MEAN_MOTION_DOT":4.01e-6,"MEAN_MOTION_DDOT":0},{"OBJECT_NAME":"ONEWEB-0046","OBJECT_ID":"2020-020Z","EPOCH":"2026-02-01T00:45:27.739584","MEAN_MOTION":13.11416638,"ECCENTRICITY":0.0002016,"INCLINATION":87.8823,"RA_OF_ASC_NODE":48.1557,"ARG_OF_PERICENTER":87.3234,"MEAN_ANOMALY":272.8125,"EPHEMERIS_TYPE":0,"CLASSIFICATION_TYPE":"U","NORAD_CAT_ID":45447,"ELEMENT_SET_NO":999,"REV_AT_EPOCH":28476,"BSTAR":0.0015052395,"MEAN_MOTION_DOT":5.46e-6,"MEAN_MOTION_DDOT":0},{"OBJECT_NAME":"ONEWEB-0063","OBJECT_ID":"2020-020AA","EPOCH":"2026-02-01T06:56:33.184608","MEAN_MOTION":13.11415353,"ECCENTRICITY":0.0002085,"INCLINATION":87.8822,"RA_OF_ASC_NODE":48.1021,"ARG_OF_PERICENTER":89.6198,"MEAN_ANOMALY":270.5169,"EPHEMERIS_TYPE":0,"CLASSIFICATION_TYPE":"U","NORAD_CAT_ID":45448,"ELEMENT_SET_NO":999,"REV_AT_EPOCH":28488,"BSTAR":-0.0012007054,"MEAN_MOTION_DOT":-4.13e-6,"MEAN_MOTION_DDOT":0},{"OBJECT_NAME":"ONEWEB-0019","OBJECT_ID":"2020-020AB","EPOCH":"2026-02-01T07:52:31.632096","MEAN_MOTION":13.11418965,"ECCENTRICITY":0.00017668,"INCLINATION":87.8812,"RA_OF_ASC_NODE":48.0926,"ARG_OF_PERICENTER":95.6857,"MEAN_ANOMALY":264.4473,"EPHEMERIS_TYPE":0,"CLASSIFICATION_TYPE":"U","NORAD_CAT_ID":45449,"ELEMENT_SET_NO":999,"REV_AT_EPOCH":28473,"BSTAR":0.0012224983,"MEAN_MOTION_DOT":4.46e-6,"MEAN_MOTION_DDOT":0},{"OBJECT_NAME":"ONEWEB-0094","OBJECT_ID":"2020-020AC","EPOCH":"2026-01-31T21:32:24.014688","MEAN_MOTION":13.17650635,"ECCENTRICITY":0.0001714,"INCLINATION":87.91,"RA_OF_ASC_NODE":32.9159,"ARG_OF_PERICENTER":87.1205,"MEAN_ANOMALY":273.0123,"EPHEMERIS_TYPE":0,"CLASSIFICATION_TYPE":"U","NORAD_CAT_ID":45450,"ELEMENT_SET_NO":999,"REV_AT_EPOCH":28836,"BSTAR":-0.0001438532,"MEAN_MOTION_DOT":-4.3e-7,"MEAN_MOTION_DDOT":0},{"OBJECT_NAME":"ONEWEB-0087","OBJECT_ID":"2020-020AD","EPOCH":"2026-01-31T12:52:19.421760","MEAN_MOTION":13.11417327,"ECCENTRICITY":0.00016862,"INCLINATION":87.8836,"RA_OF_ASC_NODE":48.2156,"ARG_OF_PERICENTER":83.4649,"MEAN_ANOMALY":276.6671,"EPHEMERIS_TYPE":0,"CLASSIFICATION_TYPE":"U","NORAD_CAT_ID":45451,"ELEMENT_SET_NO":999,"REV_AT_EPOCH":28467,"BSTAR":-0.0011054567,"MEAN_MOTION_DOT":-3.79e-6,"MEAN_MOTION_DDOT":0},{"OBJECT_NAME":"ONEWEB-0082","OBJECT_ID":"2020-020AE","EPOCH":"2026-02-01T07:06:18.268992","MEAN_MOTION":13.11415714,"ECCENTRICITY":0.00016805,"INCLINATION":87.8834,"RA_OF_ASC_NODE":48.0896,"ARG_OF_PERICENTER":85.2503,"MEAN_ANOMALY":274.8817,"EPHEMERIS_TYPE":0,"CLASSIFICATION_TYPE":"U","NORAD_CAT_ID":45452,"ELEMENT_SET_NO":999,"REV_AT_EPOCH":28486,"BSTAR":-0.0014814171,"MEAN_MOTION_DOT":-5.12e-6,"MEAN_MOTION_DDOT":0},{"OBJECT_NAME":"ONEWEB-0050","OBJECT_ID":"2020-020AF","EPOCH":"2026-02-01T00:29:00.690432","MEAN_MOTION":14.89849184,"ECCENTRICITY":0.00057121,"INCLINATION":88.9202,"RA_OF_ASC_NODE":251.7772,"ARG_OF_PERICENTER":97.5549,"MEAN_ANOMALY":262.6329,"EPHEMERIS_TYPE":0,"CLASSIFICATION_TYPE":"U","NORAD_CAT_ID":45453,"ELEMENT_SET_NO":999,"REV_AT_EPOCH":32010,"BSTAR":0.00023854725,"MEAN_MOTION_DOT":2.312e-5,"MEAN_MOTION_DDOT":0},{"OBJECT_NAME":"ONEWEB-0034","OBJECT_ID":"2020-020AG","EPOCH":"2026-02-01T00:17:22.196544","MEAN_MOTION":13.11420716,"ECCENTRICITY":0.00018201,"INCLINATION":87.8822,"RA_OF_ASC_NODE":48.1536,"ARG_OF_PERICENTER":90.4556,"MEAN_ANOMALY":269.6781,"EPHEMERIS_TYPE":0,"CLASSIFICATION_TYPE":"U","NORAD_CAT_ID":45454,"ELEMENT_SET_NO":999,"REV_AT_EPOCH":28474,"BSTAR":0.00054809723,"MEAN_MOTION_DOT":2.07e-6,"MEAN_MOTION_DDOT":0}]
